OBJECT_NAME,OBJECT_ID,EPOCH,MEAN_MOTION,ECCENTRICITY,INCLINATION,RA_OF_ASC_NODE,ARG_OF_PERICENTER,MEAN_ANOMALY,EPHEMERIS_TYPE,CLASSIFICATION_TYPE,NORAD_CAT_ID,ELEMENT_SET_NO,REV_AT_EPOCH,BSTAR,MEAN_MOTION_DOT,MEAN_MOTION_DDOT
CUTE-1 (CO-55),2003-031E,2026-07-12T12:53:22.878240,14.24350488,.00107791,98.6742,201.7775,109.4665,250.7680,0,U,27844,999,19528,.85273713E-4,.153E-5,0
CUBESAT XI-IV (CO-57),2003-031J,2026-07-12T12:55:06.299904,14.23633637,.00104483,98.6772,201.4707,126.3839,233.8305,0,U,27848,999,19498,.7534821E-4,.128E-5,0
CUBESAT XI-V,2005-043F,2026-07-11T09:17:30.194592,14.72696464,.00151315,98.3011,348.5214,126.3821,233.8784,0,U,28895,999,10531,.13420163E-3,.804E-5,0
CUTE-1.7+APD II (CO-65),2008-021C,2026-07-12T13:40:30.532512,15.09684862,.00072592,97.8286,175.5222,310.1799,49.8793,0,U,32785,999,98902,.19855033E-3,.3132E-4,0
CANX-2,2008-021H,2026-07-12T09:48:01.424448,15.05795912,.00089988,97.8655,173.6811,328.5728,31.4960,0,U,32790,999,98860,.14433835E-3,.2028E-4,0
SEEDS II (CO-66),2008-021J,2026-07-12T12:34:23.646720,15.33607267,.00027939,97.7520,192.6480,162.8059,197.3278,0,U,32791,999,99117,.35129186E-3,.11335E-3,0
SWISSCUBE,2009-051B,2026-07-12T05:01:01.202880,14.62527427,.0007715,98.4012,101.5313,127.0520,233.1388,0,U,35932,999,89281,.10865E-3,.502E-5,0
BEESAT-1,2009-051C,2026-07-11T16:24:52.965504,14.61758535,.00059254,98.3940,100.5811,139.0777,221.0870,0,U,35933,999,89276,.93456424E-4,.417E-5,0
ITUPSAT1,2009-051E,2026-07-11T23:17:18.975264,14.60475983,.0007861,98.4023,100.0372,152.4089,207.7529,0,U,35935,999,89235,.90105677E-4,.388E-5,0
TISAT 1,2010-035E,2026-07-12T07:49:15.108384,15.32659401,.00042827,98.0705,142.1248,125.7412,234.4226,0,U,36799,999,87155,.3960192E-3,.12411E-3,0
STRAND-1,2013-009E,2026-07-12T11:13:41.134080,14.37177891,.00092621,98.3932,13.0813,148.5894,211.5848,0,U,39090,999,70069,.64298601E-4,.149E-5,0
BRITE-AUSTRIA,2013-009F,2026-07-12T11:48:01.125216,14.36551807,.00106113,98.4006,12.3025,158.3879,201.7757,0,U,39091,999,70068,.43656296E-4,.86E-6,0
NEE-01 PEGASO,2013-018B,2026-07-09T15:21:07.078464,14.93776228,.00138751,98.1250,335.5366,90.6498,269.6310,0,U,39151,999,71405,.1219934E-3,.1233E-4,0
POPACS 2,2013-055E,2026-07-12T04:47:55.187520,14.91934936,.04151763,80.9921,115.5530,113.4876,251.0542,0,U,39269,999,66694,.22032605E-3,.13503E-3,-.908857E-6
POPACS 3,2013-055F,2026-07-12T11:16:54.075648,14.56613622,.05491322,80.9985,201.7622,352.9872,6.3847,0,U,39270,999,64223,.20828069E-3,.8784E-4,0
ZACUBE-1 (TSHEPISOSAT),2013-066B,2026-07-12T11:14:51.994176,15.01321493,.00438702,97.8011,155.9308,163.9572,196.3053,0,U,39417,999,68452,.10483453E-3,.1312E-4,0
WNISAT-1,2013-066H,2026-07-12T09:31:06.173472,14.58116222,.01637073,97.7230,340.7674,152.0843,208.9262,0,U,39423,999,67040,.13332321E-3,.69E-5,0
TRITON-1,2013-066M,2026-07-12T14:51:47.710944,14.81788460,.00903879,97.8229,102.8458,150.4294,210.2074,0,U,39427,999,67785,.86067783E-4,.672E-5,0
GOMX-1,2013-066Q,2026-07-12T12:22:41.687328,14.69538877,.01285296,97.6477,32.3804,356.8321,3.2058,0,U,39430,999,67363,.13666752E-3,.868E-5,0
CUBEBUG-2 (LO-74),2013-066AA,2026-07-12T07:33:50.653440,14.93955186,.00559859,97.8909,142.4045,305.1332,54.4648,0,U,39440,999,68074,.17183435E-3,.1823E-4,0
NEE-02 KRYSAOR,2013-066AB,2026-07-11T18:36:46.089216,14.86730516,.0065707,97.8892,131.8170,350.5702,9.4275,0,U,39441,999,67985,.17017859E-3,.1515E-4,0
FUNCUBE-1 (AO-73),2013-066AE,2026-07-11T21:54:09.783072,15.09793381,.0037972,97.8287,164.8814,118.2418,242.2652,0,U,39444,999,68339,.24262E-3,.3917E-4,0
UWE-3,2013-066AG,2026-07-12T09:54:42.311808,14.97187827,.00475098,97.8700,149.6617,234.2156,125.4645,0,U,39446,999,68135,.15387496E-3,.1756E-4,0
BRITE-CA1 (TORONTO),2014-033L,2026-07-11T20:05:46.288320,14.72718584,.00781937,97.9767,321.3152,197.0405,162.8175,0,U,40020,999,64584,.93137253E-4,.569E-5,0
DUCHIFAT-1,2014-033M,2026-07-11T15:59:20.150016,15.70315468,.00019202,98.0458,255.3713,269.1618,90.9422,0,U,40021,999,65958,.7760435E-3,.95138E-3,0
NANOSATC-BR1,2014-033Q,2026-07-12T13:12:06.653664,15.32271898,.00053234,98.0714,228.1994,102.2683,257.9153,0,U,40024,999,65786,.3548101E-3,.10975E-3,0
QB50P1,2014-033R,2026-07-12T12:29:54.904704,15.18640557,.00102199,98.0964,206.4495,132.7489,227.4606,0,U,40025,999,65687,.25721199E-3,.5256E-4,0
QB50P2,2014-033Y,2026-07-12T10:58:14.755872,15.15485152,.00093557,98.0759,191.9172,91.3787,268.8515,0,U,40032,999,65649,.21528358E-3,.4004E-4,0
PERSEUS-M2,2014-033AD,2026-07-12T13:18:25.204032,14.95586062,.00106704,97.9968,144.6133,208.0261,152.0386,0,U,40037,999,65457,.14983772E-3,.1603E-4,0
PERSEUS-M1,2014-033AF,2026-07-12T07:47:33.293760,14.95708575,.00107533,97.9651,137.8714,206.5323,153.5348,0,U,40039,999,65439,.12198142E-3,.1298E-4,0
